{"type":"FeatureCollection","demo":true,"features":[{"type":"Feature","properties":{"name":"Mato Grosso do Sul \u00b7 contorno DEMO","demo":true,"warning":"Geometria aproximada apenas para teste da interface"},"geometry":{"type":"Polygon","coordinates":[[[-57.7,-17.75],[-56.7,-17.45],[-55.45,-17.4],[-54.45,-17.15],[-53.55,-17.45],[-52.7,-18.05],[-51.85,-18.7],[-51.35,-19.55],[-51.45,-20.35],[-51.85,-21.05],[-52.45,-21.55],[-52.7,-22.15],[-53.25,-22.75],[-53.75,-23.45],[-54.45,-23.95],[-55.15,-23.95],[-55.65,-23.55],[-56.35,-23.55],[-56.95,-23.05],[-57.45,-22.35],[-57.65,-21.55],[-57.55,-20.75],[-57.75,-19.85],[-57.55,-18.85],[-57.7,-17.75]]]}}]}