{"type":"FeatureCollection","features":[{"type":"Feature","properties":{"glofas_id":"g4_-017.175_-0056.125","glofas_lon":-56.125,"glofas_lat":-17.175,"upstream_area_km2":25844.55,"ldd":4,"model":"GloFAS v4 / LISFLOOD","archive_index":5,"crossing":"outbound_ms"},"geometry":{"type":"LineString","coordinates":[[-56.125,-17.174999999999997],[-56.175,-17.174999999999997]]}},{"type":"Feature","properties":{"glofas_id":"g4_-017.225_-0056.025","glofas_lon":-56.025,"glofas_lat":-17.225,"upstream_area_km2":23546.01,"ldd":8,"model":"GloFAS v4 / LISFLOOD","archive_index":11,"crossing":"outbound_ms"},"geometry":{"type":"LineString","coordinates":[[-56.025000000000006,-17.224999999999994],[-56.025000000000006,-17.174999999999997]]}},{"type":"Feature","properties":{"glofas_id":"g4_-017.275_-0056.275","glofas_lon":-56.275,"glofas_lat":-17.275,"upstream_area_km2":26610.53,"ldd":4,"model":"GloFAS v4 / LISFLOOD","archive_index":17,"crossing":"outbound_ms"},"geometry":{"type":"LineString","coordinates":[[-56.275000000000006,-17.27499999999999],[-56.325,-17.27499999999999]]}},{"type":"Feature","properties":{"glofas_id":"g4_-017.275_-0055.975","glofas_lon":-55.975,"glofas_lat":-17.275,"upstream_area_km2":23074.99,"ldd":8,"model":"GloFAS v4 / LISFLOOD","archive_index":20,"crossing":"outbound_ms"},"geometry":{"type":"LineString","coordinates":[[-55.97500000000001,-17.27499999999999],[-55.97500000000001,-17.224999999999994]]}},{"type":"Feature","properties":{"glofas_id":"g4_-017.325_-0056.725","glofas_lon":-56.725,"glofas_lat":-17.325,"upstream_area_km2":96504.62,"ldd":4,"model":"GloFAS v4 / LISFLOOD","archive_index":26,"crossing":"outbound_ms"},"geometry":{"type":"LineString","coordinates":[[-56.72500000000001,-17.325000000000003],[-56.775000000000006,-17.325000000000003]]}},{"type":"Feature","properties":{"glofas_id":"g4_-017.325_-0055.825","glofas_lon":-55.825,"glofas_lat":-17.325,"upstream_area_km2":22839.63,"ldd":8,"model":"GloFAS v4 / LISFLOOD","archive_index":40,"crossing":"outbound_ms"},"geometry":{"type":"LineString","coordinates":[[-55.825,-17.325000000000003],[-55.825,-17.275000000000006]]}},{"type":"Feature","properties":{"glofas_id":"g4_-017.375_-0056.775","glofas_lon":-56.775,"glofas_lat":-17.375,"upstream_area_km2":96563.43,"ldd":4,"model":"GloFAS v4 / LISFLOOD","archive_index":46,"crossing":"outbound_ms"},"geometry":{"type":"LineString","coordinates":[[-56.775000000000006,-17.375],[-56.825,-17.375]]}},{"type":"Feature","properties":{"glofas_id":"g4_-017.375_-0055.725","glofas_lon":-55.725,"glofas_lat":-17.375,"upstream_area_km2":22398.22,"ldd":8,"model":"GloFAS v4 / LISFLOOD","archive_index":61,"crossing":"outbound_ms"},"geometry":{"type":"LineString","coordinates":[[-55.72500000000001,-17.375],[-55.72500000000001,-17.325000000000003]]}},{"type":"Feature","properties":{"glofas_id":"g4_-017.375_-0055.675","glofas_lon":-55.675,"glofas_lat":-17.375,"upstream_area_km2":22251.14,"ldd":8,"model":"GloFAS v4 / LISFLOOD","archive_index":62,"crossing":"outbound_ms"},"geometry":{"type":"LineString","coordinates":[[-55.67500000000001,-17.375],[-55.67500000000001,-17.325000000000003]]}},{"type":"Feature","properties":{"glofas_id":"g4_-017.375_-0053.875","glofas_lon":-53.875,"glofas_lat":-17.375,"upstream_area_km2":441.2,"ldd":1,"model":"GloFAS v4 / LISFLOOD","archive_index":65,"crossing":"outbound_ms"},"geometry":{"type":"LineString","coordinates":[[-53.875,-17.375],[-53.925,-17.424999999999997]]}},{"type":"Feature","properties":{"glofas_id":"g4_-017.475_-0056.825","glofas_lon":-56.825,"glofas_lat":-17.475,"upstream_area_km2":96798.61,"ldd":4,"model":"GloFAS v4 / LISFLOOD","archive_index":82,"crossing":"outbound_ms"},"geometry":{"type":"LineString","coordinates":[[-56.825,-17.474999999999994],[-56.875,-17.474999999999994]]}},{"type":"Feature","properties":{"glofas_id":"g4_-017.475_-0055.525","glofas_lon":-55.525,"glofas_lat":-17.475,"upstream_area_km2":11711.54,"ldd":7,"model":"GloFAS v4 / LISFLOOD","archive_index":93,"crossing":"outbound_ms"},"geometry":{"type":"LineString","coordinates":[[-55.525000000000006,-17.474999999999994],[-55.575,-17.424999999999997]]}},{"type":"Feature","properties":{"glofas_id":"g4_-017.475_-0054.575","glofas_lon":-54.575,"glofas_lat":-17.475,"upstream_area_km2":3672.94,"ldd":4,"model":"GloFAS v4 / LISFLOOD","archive_index":97,"crossing":"outbound_ms"},"geometry":{"type":"LineString","coordinates":[[-54.575,-17.474999999999994],[-54.625,-17.474999999999994]]}},{"type":"Feature","properties":{"glofas_id":"g4_-017.475_-0053.975","glofas_lon":-53.975,"glofas_lat":-17.475,"upstream_area_km2":676.35,"ldd":4,"model":"GloFAS v4 / LISFLOOD","archive_index":101,"crossing":"outbound_ms"},"geometry":{"type":"LineString","coordinates":[[-53.97500000000001,-17.474999999999994],[-54.025000000000006,-17.474999999999994]]}},{"type":"Feature","properties":{"glofas_id":"g4_-017.525_-0056.825","glofas_lon":-56.825,"glofas_lat":-17.525,"upstream_area_km2":4960.38,"ldd":7,"model":"GloFAS v4 / LISFLOOD","archive_index":106,"crossing":"outbound_ms"},"geometry":{"type":"LineString","coordinates":[[-56.825,-17.52499999999999],[-56.875,-17.474999999999994]]}},{"type":"Feature","properties":{"glofas_id":"g4_-017.525_-0055.425","glofas_lon":-55.425,"glofas_lat":-17.525,"upstream_area_km2":11064.99,"ldd":7,"model":"GloFAS v4 / LISFLOOD","archive_index":115,"crossing":"outbound_ms"},"geometry":{"type":"LineString","coordinates":[[-55.42500000000001,-17.52499999999999],[-55.47500000000001,-17.474999999999994]]}},{"type":"Feature","properties":{"glofas_id":"g4_-017.525_-0054.725","glofas_lon":-54.725,"glofas_lat":-17.525,"upstream_area_km2":3937.4,"ldd":4,"model":"GloFAS v4 / LISFLOOD","archive_index":119,"crossing":"outbound_ms"},"geometry":{"type":"LineString","coordinates":[[-54.72500000000001,-17.52499999999999],[-54.775000000000006,-17.52499999999999]]}},{"type":"Feature","properties":{"glofas_id":"g4_-017.525_-0054.475","glofas_lon":-54.475,"glofas_lat":-17.525,"upstream_area_km2":3408.43,"ldd":8,"model":"GloFAS v4 / LISFLOOD","archive_index":121,"crossing":"outbound_ms"},"geometry":{"type":"LineString","coordinates":[[-54.47500000000001,-17.52499999999999],[-54.47500000000001,-17.474999999999994]]}},{"type":"Feature","properties":{"glofas_id":"g4_-017.575_-0057.775","glofas_lon":-57.775,"glofas_lat":-17.575,"upstream_area_km2":124355.49,"ldd":2,"model":"GloFAS v4 / LISFLOOD","archive_index":125,"crossing":"outbound_ms"},"geometry":{"type":"LineString","coordinates":[[-57.775000000000006,-17.575000000000003],[-57.775000000000006,-17.625]]}},{"type":"Feature","properties":{"glofas_id":"g4_-017.575_-0055.275","glofas_lon":-55.275,"glofas_lat":-17.575,"upstream_area_km2":10565.89,"ldd":7,"model":"GloFAS v4 / LISFLOOD","archive_index":138,"crossing":"outbound_ms"},"geometry":{"type":"LineString","coordinates":[[-55.275000000000006,-17.575000000000003],[-55.325,-17.525000000000006]]}},{"type":"Feature","properties":{"glofas_id":"g4_-017.575_-0054.775","glofas_lon":-54.775,"glofas_lat":-17.575,"upstream_area_km2":4054.9,"ldd":4,"model":"GloFAS v4 / LISFLOOD","archive_index":143,"crossing":"outbound_ms"},"geometry":{"type":"LineString","coordinates":[[-54.775000000000006,-17.575000000000003],[-54.825,-17.575000000000003]]}},{"type":"Feature","properties":{"glofas_id":"g4_-017.575_-0054.425","glofas_lon":-54.425,"glofas_lat":-17.575,"upstream_area_km2":2703.01,"ldd":8,"model":"GloFAS v4 / LISFLOOD","archive_index":144,"crossing":"outbound_ms"},"geometry":{"type":"LineString","coordinates":[[-54.42500000000001,-17.575000000000003],[-54.42500000000001,-17.525000000000006]]}},{"type":"Feature","properties":{"glofas_id":"g4_-017.625_-0055.225","glofas_lon":-55.225,"glofas_lat":-17.625,"upstream_area_km2":10125.86,"ldd":8,"model":"GloFAS v4 / LISFLOOD","archive_index":161,"crossing":"outbound_ms"},"geometry":{"type":"LineString","coordinates":[[-55.22500000000001,-17.625],[-55.22500000000001,-17.575000000000003]]}},{"type":"Feature","properties":{"glofas_id":"g4_-017.625_-0054.975","glofas_lon":-54.975,"glofas_lat":-17.625,"upstream_area_km2":4583.47,"ldd":4,"model":"GloFAS v4 / LISFLOOD","archive_index":166,"crossing":"outbound_ms"},"geometry":{"type":"LineString","coordinates":[[-54.97500000000001,-17.625],[-55.025000000000006,-17.625]]}},{"type":"Feature","properties":{"glofas_id":"g4_-017.625_-0054.225","glofas_lon":-54.225,"glofas_lat":-17.625,"upstream_area_km2":1851.39,"ldd":4,"model":"GloFAS v4 / LISFLOOD","archive_index":172,"crossing":"outbound_ms"},"geometry":{"type":"LineString","coordinates":[[-54.22500000000001,-17.625],[-54.275000000000006,-17.625]]}},{"type":"Feature","properties":{"glofas_id":"g4_-017.675_-0056.975","glofas_lon":-56.975,"glofas_lat":-17.675,"upstream_area_km2":821.72,"ldd":4,"model":"GloFAS v4 / LISFLOOD","archive_index":181,"crossing":"outbound_ms"},"geometry":{"type":"LineString","coordinates":[[-56.97500000000001,-17.674999999999997],[-57.025000000000006,-17.674999999999997]]}},{"type":"Feature","properties":{"glofas_id":"g4_-017.675_-0055.175","glofas_lon":-55.175,"glofas_lat":-17.675,"upstream_area_km2":4074.47,"ldd":9,"model":"GloFAS v4 / LISFLOOD","archive_index":194,"crossing":"outbound_ms"},"geometry":{"type":"LineString","coordinates":[[-55.17500000000001,-17.674999999999997],[-55.125000000000014,-17.625]]}},{"type":"Feature","properties":{"glofas_id":"g4_-017.675_-0055.125","glofas_lon":-55.125,"glofas_lat":-17.675,"upstream_area_km2":5551.99,"ldd":8,"model":"GloFAS v4 / LISFLOOD","archive_index":195,"crossing":"outbound_ms"},"geometry":{"type":"LineString","coordinates":[[-55.125,-17.674999999999997],[-55.125,-17.625]]}},{"type":"Feature","properties":{"glofas_id":"g4_-017.675_-0054.325","glofas_lon":-54.325,"glofas_lat":-17.675,"upstream_area_km2":2115.58,"ldd":7,"model":"GloFAS v4 / LISFLOOD","archive_index":197,"crossing":"outbound_ms"},"geometry":{"type":"LineString","coordinates":[[-54.325,-17.674999999999997],[-54.375,-17.625]]}},{"type":"Feature","properties":{"glofas_id":"g4_-017.725_-0057.675","glofas_lon":-57.675,"glofas_lat":-17.725,"upstream_area_km2":125821.75,"ldd":6,"model":"GloFAS v4 / LISFLOOD","archive_index":201,"crossing":"outbound_ms"},"geometry":{"type":"LineString","coordinates":[[-57.67500000000001,-17.724999999999994],[-57.625000000000014,-17.724999999999994]]}},{"type":"Feature","properties":{"glofas_id":"g4_-017.725_-0057.025","glofas_lon":-57.025,"glofas_lat":-17.725,"upstream_area_km2":104077.28,"ldd":4,"model":"GloFAS v4 / LISFLOOD","archive_index":204,"crossing":"outbound_ms"},"geometry":{"type":"LineString","coordinates":[[-57.025000000000006,-17.724999999999994],[-57.075,-17.724999999999994]]}},{"type":"Feature","properties":{"glofas_id":"g4_-017.725_-0056.975","glofas_lon":-56.975,"glofas_lat":-17.725,"upstream_area_km2":909.21,"ldd":7,"model":"GloFAS v4 / LISFLOOD","archive_index":205,"crossing":"outbound_ms"},"geometry":{"type":"LineString","coordinates":[[-56.97500000000001,-17.724999999999994],[-57.025000000000006,-17.674999999999997]]}},{"type":"Feature","properties":{"glofas_id":"g4_-017.775_-0057.625","glofas_lon":-57.625,"glofas_lat":-17.775,"upstream_area_km2":125880.44,"ldd":6,"model":"GloFAS v4 / LISFLOOD","archive_index":228,"crossing":"outbound_ms"},"geometry":{"type":"LineString","coordinates":[[-57.625,-17.77499999999999],[-57.575,-17.77499999999999]]}},{"type":"Feature","properties":{"glofas_id":"g4_-017.775_-0057.075","glofas_lon":-57.075,"glofas_lat":-17.775,"upstream_area_km2":104429.35,"ldd":4,"model":"GloFAS v4 / LISFLOOD","archive_index":234,"crossing":"outbound_ms"},"geometry":{"type":"LineString","coordinates":[[-57.075,-17.77499999999999],[-57.125,-17.77499999999999]]}},{"type":"Feature","properties":{"glofas_id":"g4_-017.775_-0053.925","glofas_lon":-53.925,"glofas_lat":-17.775,"upstream_area_km2":469.59,"ldd":2,"model":"GloFAS v4 / LISFLOOD","archive_index":255,"crossing":"outbound_ms"},"geometry":{"type":"LineString","coordinates":[[-53.92500000000001,-17.77499999999999],[-53.92500000000001,-17.82499999999999]]}},{"type":"Feature","properties":{"glofas_id":"g4_-017.825_-0057.575","glofas_lon":-57.575,"glofas_lat":-17.825,"upstream_area_km2":126056.46,"ldd":6,"model":"GloFAS v4 / LISFLOOD","archive_index":258,"crossing":"outbound_ms"},"geometry":{"type":"LineString","coordinates":[[-57.575,-17.825000000000003],[-57.525000000000006,-17.825000000000003]]}},{"type":"Feature","properties":{"glofas_id":"g4_-017.825_-0057.275","glofas_lon":-57.275,"glofas_lat":-17.825,"upstream_area_km2":104722.74,"ldd":4,"model":"GloFAS v4 / LISFLOOD","archive_index":264,"crossing":"outbound_ms"},"geometry":{"type":"LineString","coordinates":[[-57.275000000000006,-17.825000000000003],[-57.325,-17.825000000000003]]}},{"type":"Feature","properties":{"glofas_id":"g4_-017.875_-0057.525","glofas_lon":-57.525,"glofas_lat":-17.875,"upstream_area_km2":126144.45,"ldd":9,"model":"GloFAS v4 / LISFLOOD","archive_index":284,"crossing":"outbound_ms"},"geometry":{"type":"LineString","coordinates":[[-57.525000000000006,-17.875],[-57.47500000000001,-17.825000000000003]]}},{"type":"Feature","properties":{"glofas_id":"g4_-017.975_-0053.825","glofas_lon":-53.825,"glofas_lat":-17.975,"upstream_area_km2":5190.62,"ldd":8,"model":"GloFAS v4 / LISFLOOD","archive_index":366,"crossing":"outbound_ms"},"geometry":{"type":"LineString","coordinates":[[-53.825,-17.974999999999994],[-53.825,-17.924999999999997]]}},{"type":"Feature","properties":{"glofas_id":"g4_-018.025_-0053.725","glofas_lon":-53.725,"glofas_lat":-18.025,"upstream_area_km2":2929.19,"ldd":8,"model":"GloFAS v4 / LISFLOOD","archive_index":403,"crossing":"outbound_ms"},"geometry":{"type":"LineString","coordinates":[[-53.72500000000001,-18.02499999999999],[-53.72500000000001,-17.974999999999994]]}},{"type":"Feature","properties":{"glofas_id":"g4_-018.025_-0053.575","glofas_lon":-53.575,"glofas_lat":-18.025,"upstream_area_km2":2548.2,"ldd":7,"model":"GloFAS v4 / LISFLOOD","archive_index":405,"crossing":"outbound_ms"},"geometry":{"type":"LineString","coordinates":[[-53.575,-18.02499999999999],[-53.625,-17.974999999999994]]}},{"type":"Feature","properties":{"glofas_id":"g4_-018.075_-0053.475","glofas_lon":-53.475,"glofas_lat":-18.075,"upstream_area_km2":556.3,"ldd":8,"model":"GloFAS v4 / LISFLOOD","archive_index":435,"crossing":"outbound_ms"},"geometry":{"type":"LineString","coordinates":[[-53.47500000000001,-18.075000000000003],[-53.47500000000001,-18.025000000000006]]}},{"type":"Feature","properties":{"glofas_id":"g4_-018.175_-0057.475","glofas_lon":-57.475,"glofas_lat":-18.175,"upstream_area_km2":702.83,"ldd":2,"model":"GloFAS v4 / LISFLOOD","archive_index":470,"crossing":"outbound_ms"},"geometry":{"type":"LineString","coordinates":[[-57.47500000000001,-18.174999999999997],[-57.47500000000001,-18.224999999999994]]}},{"type":"Feature","properties":{"glofas_id":"g4_-018.675_-0052.525","glofas_lon":-52.525,"glofas_lat":-18.675,"upstream_area_km2":467.05,"ldd":6,"model":"GloFAS v4 / LISFLOOD","archive_index":808,"crossing":"outbound_ms"},"geometry":{"type":"LineString","coordinates":[[-52.525000000000006,-18.674999999999997],[-52.47500000000001,-18.674999999999997]]}},{"type":"Feature","properties":{"glofas_id":"g4_-018.725_-0057.675","glofas_lon":-57.675,"glofas_lat":-18.725,"upstream_area_km2":292.05,"ldd":4,"model":"GloFAS v4 / LISFLOOD","archive_index":812,"crossing":"outbound_ms"},"geometry":{"type":"LineString","coordinates":[[-57.67500000000001,-18.724999999999994],[-57.72500000000001,-18.724999999999994]]}},{"type":"Feature","properties":{"glofas_id":"g4_-018.775_-0057.725","glofas_lon":-57.725,"glofas_lat":-18.775,"upstream_area_km2":496.41,"ldd":4,"model":"GloFAS v4 / LISFLOOD","archive_index":851,"crossing":"outbound_ms"},"geometry":{"type":"LineString","coordinates":[[-57.72500000000001,-18.77499999999999],[-57.775000000000006,-18.77499999999999]]}},{"type":"Feature","properties":{"glofas_id":"g4_-018.775_-0052.425","glofas_lon":-52.425,"glofas_lat":-18.775,"upstream_area_km2":291.74,"ldd":8,"model":"GloFAS v4 / LISFLOOD","archive_index":886,"crossing":"outbound_ms"},"geometry":{"type":"LineString","coordinates":[[-52.42500000000001,-18.77499999999999],[-52.42500000000001,-18.724999999999994]]}},{"type":"Feature","properties":{"glofas_id":"g4_-018.825_-0052.375","glofas_lon":-52.375,"glofas_lat":-18.825,"upstream_area_km2":904.67,"ldd":6,"model":"GloFAS v4 / LISFLOOD","archive_index":913,"crossing":"outbound_ms"},"geometry":{"type":"LineString","coordinates":[[-52.375,-18.825000000000003],[-52.325,-18.825000000000003]]}},{"type":"Feature","properties":{"glofas_id":"g4_-018.875_-0052.175","glofas_lon":-52.175,"glofas_lat":-18.875,"upstream_area_km2":3153.33,"ldd":6,"model":"GloFAS v4 / LISFLOOD","archive_index":950,"crossing":"outbound_ms"},"geometry":{"type":"LineString","coordinates":[[-52.17500000000001,-18.875],[-52.125000000000014,-18.875]]}},{"type":"Feature","properties":{"glofas_id":"g4_-018.925_-0052.125","glofas_lon":-52.125,"glofas_lat":-18.925,"upstream_area_km2":3444.91,"ldd":6,"model":"GloFAS v4 / LISFLOOD","archive_index":980,"crossing":"outbound_ms"},"geometry":{"type":"LineString","coordinates":[[-52.125,-18.924999999999997],[-52.075,-18.924999999999997]]}},{"type":"Feature","properties":{"glofas_id":"g4_-018.975_-0052.025","glofas_lon":-52.025,"glofas_lat":-18.975,"upstream_area_km2":3678.03,"ldd":6,"model":"GloFAS v4 / LISFLOOD","archive_index":1017,"crossing":"outbound_ms"},"geometry":{"type":"LineString","coordinates":[[-52.025000000000006,-18.974999999999994],[-51.97500000000001,-18.974999999999994]]}},{"type":"Feature","properties":{"glofas_id":"g4_-019.075_-0051.825","glofas_lon":-51.825,"glofas_lat":-19.075,"upstream_area_km2":4464.8,"ldd":6,"model":"GloFAS v4 / LISFLOOD","archive_index":1104,"crossing":"outbound_ms"},"geometry":{"type":"LineString","coordinates":[[-51.82500000000002,-19.075000000000003],[-51.77500000000002,-19.075000000000003]]}},{"type":"Feature","properties":{"glofas_id":"g4_-019.125_-0051.725","glofas_lon":-51.725,"glofas_lat":-19.125,"upstream_area_km2":4726.88,"ldd":6,"model":"GloFAS v4 / LISFLOOD","archive_index":1136,"crossing":"outbound_ms"},"geometry":{"type":"LineString","coordinates":[[-51.724999999999994,-19.125],[-51.675,-19.125]]}},{"type":"Feature","properties":{"glofas_id":"g4_-019.175_-0051.425","glofas_lon":-51.425,"glofas_lat":-19.175,"upstream_area_km2":5745.96,"ldd":6,"model":"GloFAS v4 / LISFLOOD","archive_index":1182,"crossing":"outbound_ms"},"geometry":{"type":"LineString","coordinates":[[-51.42500000000001,-19.174999999999997],[-51.375000000000014,-19.174999999999997]]}},{"type":"Feature","properties":{"glofas_id":"g4_-019.225_-0051.325","glofas_lon":-51.325,"glofas_lat":-19.225,"upstream_area_km2":6124.27,"ldd":6,"model":"GloFAS v4 / LISFLOOD","archive_index":1220,"crossing":"outbound_ms"},"geometry":{"type":"LineString","coordinates":[[-51.32500000000002,-19.224999999999994],[-51.27500000000002,-19.224999999999994]]}},{"type":"Feature","properties":{"glofas_id":"g4_-019.275_-0051.225","glofas_lon":-51.225,"glofas_lat":-19.275,"upstream_area_km2":6444.28,"ldd":6,"model":"GloFAS v4 / LISFLOOD","archive_index":1268,"crossing":"outbound_ms"},"geometry":{"type":"LineString","coordinates":[[-51.224999999999994,-19.27499999999999],[-51.175,-19.27499999999999]]}},{"type":"Feature","properties":{"glofas_id":"g4_-019.325_-0051.075","glofas_lon":-51.075,"glofas_lat":-19.325,"upstream_area_km2":6851.44,"ldd":3,"model":"GloFAS v4 / LISFLOOD","archive_index":1300,"crossing":"outbound_ms"},"geometry":{"type":"LineString","coordinates":[[-51.07500000000002,-19.325000000000003],[-51.02500000000002,-19.375]]}},{"type":"Feature","properties":{"glofas_id":"g4_-019.425_-0057.925","glofas_lon":-57.925,"glofas_lat":-19.425,"upstream_area_km2":1483.47,"ldd":4,"model":"GloFAS v4 / LISFLOOD","archive_index":1340,"crossing":"outbound_ms"},"geometry":{"type":"LineString","coordinates":[[-57.92500000000001,-19.424999999999997],[-57.97500000000001,-19.424999999999997]]}},{"type":"Feature","properties":{"glofas_id":"g4_-019.425_-0051.025","glofas_lon":-51.025,"glofas_lat":-19.425,"upstream_area_km2":7025.83,"ldd":6,"model":"GloFAS v4 / LISFLOOD","archive_index":1377,"crossing":"outbound_ms"},"geometry":{"type":"LineString","coordinates":[[-51.025000000000006,-19.424999999999997],[-50.97500000000001,-19.424999999999997]]}},{"type":"Feature","properties":{"glofas_id":"g4_-019.475_-0050.975","glofas_lon":-50.975,"glofas_lat":-19.475,"upstream_area_km2":217643.17,"ldd":3,"model":"GloFAS v4 / LISFLOOD","archive_index":1410,"crossing":"outbound_ms"},"geometry":{"type":"LineString","coordinates":[[-50.974999999999994,-19.474999999999994],[-50.925,-19.52499999999999]]}},{"type":"Feature","properties":{"glofas_id":"g4_-019.525_-0057.975","glofas_lon":-57.975,"glofas_lat":-19.525,"upstream_area_km2":4512.64,"ldd":4,"model":"GloFAS v4 / LISFLOOD","archive_index":1413,"crossing":"outbound_ms"},"geometry":{"type":"LineString","coordinates":[[-57.97500000000001,-19.52499999999999],[-58.025000000000006,-19.52499999999999]]}},{"type":"Feature","properties":{"glofas_id":"g4_-019.575_-0050.975","glofas_lon":-50.975,"glofas_lat":-19.575,"upstream_area_km2":218107.79,"ldd":2,"model":"GloFAS v4 / LISFLOOD","archive_index":1502,"crossing":"outbound_ms"},"geometry":{"type":"LineString","coordinates":[[-50.974999999999994,-19.575000000000003],[-50.974999999999994,-19.625]]}},{"type":"Feature","properties":{"glofas_id":"g4_-019.625_-0051.025","glofas_lon":-51.025,"glofas_lat":-19.625,"upstream_area_km2":219182.68,"ldd":2,"model":"GloFAS v4 / LISFLOOD","archive_index":1556,"crossing":"outbound_ms"},"geometry":{"type":"LineString","coordinates":[[-51.025000000000006,-19.625],[-51.025000000000006,-19.674999999999997]]}},{"type":"Feature","properties":{"glofas_id":"g4_-019.725_-0051.075","glofas_lon":-51.075,"glofas_lat":-19.725,"upstream_area_km2":2700.87,"ldd":6,"model":"GloFAS v4 / LISFLOOD","archive_index":1648,"crossing":"outbound_ms"},"geometry":{"type":"LineString","coordinates":[[-51.07500000000002,-19.724999999999994],[-51.02500000000002,-19.724999999999994]]}},{"type":"Feature","properties":{"glofas_id":"g4_-019.775_-0058.075","glofas_lon":-58.075,"glofas_lat":-19.775,"upstream_area_km2":6370.96,"ldd":1,"model":"GloFAS v4 / LISFLOOD","archive_index":1650,"crossing":"outbound_ms"},"geometry":{"type":"LineString","coordinates":[[-58.075,-19.77499999999999],[-58.125,-19.82499999999999]]}},{"type":"Feature","properties":{"glofas_id":"g4_-019.825_-0058.025","glofas_lon":-58.025,"glofas_lat":-19.825,"upstream_area_km2":1014.77,"ldd":4,"model":"GloFAS v4 / LISFLOOD","archive_index":1698,"crossing":"outbound_ms"},"geometry":{"type":"LineString","coordinates":[[-58.025000000000006,-19.825000000000003],[-58.075,-19.825000000000003]]}},{"type":"Feature","properties":{"glofas_id":"g4_-019.875_-0051.025","glofas_lon":-51.025,"glofas_lat":-19.875,"upstream_area_km2":222637.51,"ldd":3,"model":"GloFAS v4 / LISFLOOD","archive_index":1781,"crossing":"outbound_ms"},"geometry":{"type":"LineString","coordinates":[[-51.025000000000006,-19.875],[-50.97500000000001,-19.924999999999997]]}},{"type":"Feature","properties":{"glofas_id":"g4_-019.925_-0057.825","glofas_lon":-57.825,"glofas_lat":-19.925,"upstream_area_km2":370488.74,"ldd":1,"model":"GloFAS v4 / LISFLOOD","archive_index":1783,"crossing":"outbound_ms"},"geometry":{"type":"LineString","coordinates":[[-57.825,-19.924999999999997],[-57.875,-19.974999999999994]]}},{"type":"Feature","properties":{"glofas_id":"g4_-020.025_-0057.875","glofas_lon":-57.875,"glofas_lat":-20.025,"upstream_area_km2":370604.61,"ldd":4,"model":"GloFAS v4 / LISFLOOD","archive_index":1858,"crossing":"outbound_ms"},"geometry":{"type":"LineString","coordinates":[[-57.875,-20.02499999999999],[-57.925,-20.02499999999999]]}},{"type":"Feature","properties":{"glofas_id":"g4_-020.125_-0058.075","glofas_lon":-58.075,"glofas_lat":-20.125,"upstream_area_km2":370807.21,"ldd":4,"model":"GloFAS v4 / LISFLOOD","archive_index":1950,"crossing":"outbound_ms"},"geometry":{"type":"LineString","coordinates":[[-58.075,-20.125],[-58.125,-20.125]]}},{"type":"Feature","properties":{"glofas_id":"g4_-020.125_-0051.025","glofas_lon":-51.025,"glofas_lat":-20.125,"upstream_area_km2":367018.67,"ldd":2,"model":"GloFAS v4 / LISFLOOD","archive_index":1979,"crossing":"outbound_ms"},"geometry":{"type":"LineString","coordinates":[[-51.025000000000006,-20.125],[-51.025000000000006,-20.174999999999997]]}},{"type":"Feature","properties":{"glofas_id":"g4_-020.225_-0058.125","glofas_lon":-58.125,"glofas_lat":-20.225,"upstream_area_km2":450063.83,"ldd":4,"model":"GloFAS v4 / LISFLOOD","archive_index":2026,"crossing":"outbound_ms"},"geometry":{"type":"LineString","coordinates":[[-58.125,-20.224999999999994],[-58.175,-20.224999999999994]]}},{"type":"Feature","properties":{"glofas_id":"g4_-020.225_-0051.075","glofas_lon":-51.075,"glofas_lat":-20.225,"upstream_area_km2":367886.01,"ldd":2,"model":"GloFAS v4 / LISFLOOD","archive_index":2061,"crossing":"outbound_ms"},"geometry":{"type":"LineString","coordinates":[[-51.07500000000002,-20.224999999999994],[-51.07500000000002,-20.27499999999999]]}},{"type":"Feature","properties":{"glofas_id":"g4_-020.275_-0058.075","glofas_lon":-58.075,"glofas_lat":-20.275,"upstream_area_km2":507696.61,"ldd":1,"model":"GloFAS v4 / LISFLOOD","archive_index":2065,"crossing":"outbound_ms"},"geometry":{"type":"LineString","coordinates":[[-58.075,-20.27499999999999],[-58.125,-20.32499999999999]]}},{"type":"Feature","properties":{"glofas_id":"g4_-020.275_-0051.125","glofas_lon":-51.125,"glofas_lat":-20.275,"upstream_area_km2":370581.11,"ldd":1,"model":"GloFAS v4 / LISFLOOD","archive_index":2096,"crossing":"outbound_ms"},"geometry":{"type":"LineString","coordinates":[[-51.125,-20.27499999999999],[-51.175,-20.32499999999999]]}},{"type":"Feature","properties":{"glofas_id":"g4_-020.375_-0058.025","glofas_lon":-58.025,"glofas_lat":-20.375,"upstream_area_km2":507956.69,"ldd":2,"model":"GloFAS v4 / LISFLOOD","archive_index":2147,"crossing":"outbound_ms"},"geometry":{"type":"LineString","coordinates":[[-58.025000000000006,-20.375],[-58.025000000000006,-20.424999999999997]]}},{"type":"Feature","properties":{"glofas_id":"g4_-020.375_-0051.375","glofas_lon":-51.375,"glofas_lat":-20.375,"upstream_area_km2":377946.73,"ldd":2,"model":"GloFAS v4 / LISFLOOD","archive_index":2187,"crossing":"outbound_ms"},"geometry":{"type":"LineString","coordinates":[[-51.375,-20.375],[-51.375,-20.424999999999997]]}},{"type":"Feature","properties":{"glofas_id":"g4_-020.425_-0057.975","glofas_lon":-57.975,"glofas_lat":-20.425,"upstream_area_km2":1186.36,"ldd":4,"model":"GloFAS v4 / LISFLOOD","archive_index":2192,"crossing":"outbound_ms"},"geometry":{"type":"LineString","coordinates":[[-57.97500000000001,-20.424999999999997],[-58.025000000000006,-20.424999999999997]]}},{"type":"Feature","properties":{"glofas_id":"g4_-020.425_-0051.475","glofas_lon":-51.475,"glofas_lat":-20.425,"upstream_area_km2":520.25,"ldd":3,"model":"GloFAS v4 / LISFLOOD","archive_index":2231,"crossing":"outbound_ms"},"geometry":{"type":"LineString","coordinates":[[-51.474999999999994,-20.424999999999997],[-51.425,-20.474999999999994]]}},{"type":"Feature","properties":{"glofas_id":"g4_-020.475_-0057.975","glofas_lon":-57.975,"glofas_lat":-20.475,"upstream_area_km2":509778.89,"ldd":4,"model":"GloFAS v4 / LISFLOOD","archive_index":2234,"crossing":"outbound_ms"},"geometry":{"type":"LineString","coordinates":[[-57.97500000000001,-20.474999999999994],[-58.025000000000006,-20.474999999999994]]}},{"type":"Feature","properties":{"glofas_id":"g4_-020.475_-0051.475","glofas_lon":-51.475,"glofas_lat":-20.475,"upstream_area_km2":378784.65,"ldd":2,"model":"GloFAS v4 / LISFLOOD","archive_index":2274,"crossing":"outbound_ms"},"geometry":{"type":"LineString","coordinates":[[-51.474999999999994,-20.474999999999994],[-51.474999999999994,-20.52499999999999]]}},{"type":"Feature","properties":{"glofas_id":"g4_-020.575_-0057.975","glofas_lon":-57.975,"glofas_lat":-20.575,"upstream_area_km2":511568.51,"ldd":1,"model":"GloFAS v4 / LISFLOOD","archive_index":2305,"crossing":"outbound_ms"},"geometry":{"type":"LineString","coordinates":[[-57.97500000000001,-20.575000000000003],[-58.025000000000006,-20.625]]}},{"type":"Feature","properties":{"glofas_id":"g4_-020.575_-0051.525","glofas_lon":-51.525,"glofas_lat":-20.575,"upstream_area_km2":379362.25,"ldd":1,"model":"GloFAS v4 / LISFLOOD","archive_index":2342,"crossing":"outbound_ms"},"geometry":{"type":"LineString","coordinates":[[-51.525000000000006,-20.575000000000003],[-51.575,-20.625]]}},{"type":"Feature","properties":{"glofas_id":"g4_-020.675_-0057.975","glofas_lon":-57.975,"glofas_lat":-20.675,"upstream_area_km2":512318.7,"ldd":2,"model":"GloFAS v4 / LISFLOOD","archive_index":2376,"crossing":"outbound_ms"},"geometry":{"type":"LineString","coordinates":[[-57.97500000000001,-20.674999999999997],[-57.97500000000001,-20.724999999999994]]}},{"type":"Feature","properties":{"glofas_id":"g4_-020.675_-0057.875","glofas_lon":-57.875,"glofas_lat":-20.675,"upstream_area_km2":721.48,"ldd":2,"model":"GloFAS v4 / LISFLOOD","archive_index":2378,"crossing":"outbound_ms"},"geometry":{"type":"LineString","coordinates":[[-57.875,-20.674999999999997],[-57.875,-20.724999999999994]]}},{"type":"Feature","properties":{"glofas_id":"g4_-020.675_-0051.625","glofas_lon":-51.625,"glofas_lat":-20.675,"upstream_area_km2":451918.1,"ldd":2,"model":"GloFAS v4 / LISFLOOD","archive_index":2412,"crossing":"outbound_ms"},"geometry":{"type":"LineString","coordinates":[[-51.625,-20.674999999999997],[-51.625,-20.724999999999994]]}},{"type":"Feature","properties":{"glofas_id":"g4_-020.725_-0051.675","glofas_lon":-51.675,"glofas_lat":-20.725,"upstream_area_km2":25269.32,"ldd":6,"model":"GloFAS v4 / LISFLOOD","archive_index":2440,"crossing":"outbound_ms"},"geometry":{"type":"LineString","coordinates":[[-51.67500000000001,-20.724999999999994],[-51.625000000000014,-20.724999999999994]]}},{"type":"Feature","properties":{"glofas_id":"g4_-020.775_-0057.925","glofas_lon":-57.925,"glofas_lat":-20.775,"upstream_area_km2":540957.8,"ldd":3,"model":"GloFAS v4 / LISFLOOD","archive_index":2443,"crossing":"outbound_ms"},"geometry":{"type":"LineString","coordinates":[[-57.92500000000001,-20.77499999999999],[-57.875000000000014,-20.82499999999999]]}},{"type":"Feature","properties":{"glofas_id":"g4_-020.775_-0051.625","glofas_lon":-51.625,"glofas_lat":-20.775,"upstream_area_km2":477475.64,"ldd":2,"model":"GloFAS v4 / LISFLOOD","archive_index":2471,"crossing":"outbound_ms"},"geometry":{"type":"LineString","coordinates":[[-51.625,-20.77499999999999],[-51.625,-20.82499999999999]]}},{"type":"Feature","properties":{"glofas_id":"g4_-020.875_-0057.875","glofas_lon":-57.875,"glofas_lat":-20.875,"upstream_area_km2":541015.41,"ldd":4,"model":"GloFAS v4 / LISFLOOD","archive_index":2505,"crossing":"outbound_ms"},"geometry":{"type":"LineString","coordinates":[[-57.875,-20.875],[-57.925,-20.875]]}},{"type":"Feature","properties":{"glofas_id":"g4_-020.925_-0057.875","glofas_lon":-57.875,"glofas_lat":-20.925,"upstream_area_km2":543115.51,"ldd":3,"model":"GloFAS v4 / LISFLOOD","archive_index":2541,"crossing":"outbound_ms"},"geometry":{"type":"LineString","coordinates":[[-57.875,-20.924999999999997],[-57.825,-20.974999999999994]]}},{"type":"Feature","properties":{"glofas_id":"g4_-020.925_-0057.825","glofas_lon":-57.825,"glofas_lat":-20.925,"upstream_area_km2":13721.32,"ldd":2,"model":"GloFAS v4 / LISFLOOD","archive_index":2542,"crossing":"outbound_ms"},"geometry":{"type":"LineString","coordinates":[[-57.825,-20.924999999999997],[-57.825,-20.974999999999994]]}},{"type":"Feature","properties":{"glofas_id":"g4_-020.925_-0051.625","glofas_lon":-51.625,"glofas_lat":-20.925,"upstream_area_km2":805.78,"ldd":2,"model":"GloFAS v4 / LISFLOOD","archive_index":2573,"crossing":"outbound_ms"},"geometry":{"type":"LineString","coordinates":[[-51.625,-20.924999999999997],[-51.625,-20.974999999999994]]}},{"type":"Feature","properties":{"glofas_id":"g4_-021.025_-0057.825","glofas_lon":-57.825,"glofas_lat":-21.025,"upstream_area_km2":316.45,"ldd":8,"model":"GloFAS v4 / LISFLOOD","archive_index":2608,"crossing":"outbound_ms"},"geometry":{"type":"LineString","coordinates":[[-57.825,-21.02499999999999],[-57.825,-20.974999999999994]]}},{"type":"Feature","properties":{"glofas_id":"g4_-021.025_-0051.775","glofas_lon":-51.775,"glofas_lat":-21.025,"upstream_area_km2":479318.15,"ldd":2,"model":"GloFAS v4 / LISFLOOD","archive_index":2634,"crossing":"outbound_ms"},"geometry":{"type":"LineString","coordinates":[[-51.775000000000006,-21.02499999999999],[-51.775000000000006,-21.07499999999999]]}},{"type":"Feature","properties":{"glofas_id":"g4_-021.125_-0057.825","glofas_lon":-57.825,"glofas_lat":-21.125,"upstream_area_km2":557498.5,"ldd":4,"model":"GloFAS v4 / LISFLOOD","archive_index":2665,"crossing":"outbound_ms"},"geometry":{"type":"LineString","coordinates":[[-57.825,-21.125],[-57.875,-21.125]]}},{"type":"Feature","properties":{"glofas_id":"g4_-021.125_-0051.875","glofas_lon":-51.875,"glofas_lat":-21.125,"upstream_area_km2":492071.29,"ldd":2,"model":"GloFAS v4 / LISFLOOD","archive_index":2692,"crossing":"outbound_ms"},"geometry":{"type":"LineString","coordinates":[[-51.875,-21.125],[-51.875,-21.174999999999997]]}},{"type":"Feature","properties":{"glofas_id":"g4_-021.175_-0051.925","glofas_lon":-51.925,"glofas_lat":-21.175,"upstream_area_km2":22285.36,"ldd":6,"model":"GloFAS v4 / LISFLOOD","archive_index":2719,"crossing":"outbound_ms"},"geometry":{"type":"LineString","coordinates":[[-51.92500000000001,-21.174999999999997],[-51.875000000000014,-21.174999999999997]]}},{"type":"Feature","properties":{"glofas_id":"g4_-021.225_-0057.825","glofas_lon":-57.825,"glofas_lat":-21.225,"upstream_area_km2":557671.06,"ldd":4,"model":"GloFAS v4 / LISFLOOD","archive_index":2723,"crossing":"outbound_ms"},"geometry":{"type":"LineString","coordinates":[[-57.825,-21.224999999999994],[-57.875,-21.224999999999994]]}},{"type":"Feature","properties":{"glofas_id":"g4_-021.275_-0057.825","glofas_lon":-57.825,"glofas_lat":-21.275,"upstream_area_km2":316.13,"ldd":7,"model":"GloFAS v4 / LISFLOOD","archive_index":2756,"crossing":"outbound_ms"},"geometry":{"type":"LineString","coordinates":[[-57.825,-21.27499999999999],[-57.875,-21.224999999999994]]}},{"type":"Feature","properties":{"glofas_id":"g4_-021.325_-0057.825","glofas_lon":-57.825,"glofas_lat":-21.325,"upstream_area_km2":2326.87,"ldd":4,"model":"GloFAS v4 / LISFLOOD","archive_index":2787,"crossing":"outbound_ms"},"geometry":{"type":"LineString","coordinates":[[-57.825,-21.325000000000003],[-57.875,-21.325000000000003]]}},{"type":"Feature","properties":{"glofas_id":"g4_-021.325_-0051.875","glofas_lon":-51.875,"glofas_lat":-21.325,"upstream_area_km2":515246.65,"ldd":2,"model":"GloFAS v4 / LISFLOOD","archive_index":2824,"crossing":"outbound_ms"},"geometry":{"type":"LineString","coordinates":[[-51.875,-21.325000000000003],[-51.875,-21.375]]}},{"type":"Feature","properties":{"glofas_id":"g4_-021.375_-0057.875","glofas_lon":-57.875,"glofas_lat":-21.375,"upstream_area_km2":564134.02,"ldd":1,"model":"GloFAS v4 / LISFLOOD","archive_index":2826,"crossing":"outbound_ms"},"geometry":{"type":"LineString","coordinates":[[-57.875,-21.375],[-57.925,-21.424999999999997]]}},{"type":"Feature","properties":{"glofas_id":"g4_-021.425_-0057.875","glofas_lon":-57.875,"glofas_lat":-21.425,"upstream_area_km2":1893.83,"ldd":4,"model":"GloFAS v4 / LISFLOOD","archive_index":2864,"crossing":"outbound_ms"},"geometry":{"type":"LineString","coordinates":[[-57.875,-21.424999999999997],[-57.925,-21.424999999999997]]}},{"type":"Feature","properties":{"glofas_id":"g4_-021.425_-0051.925","glofas_lon":-51.925,"glofas_lat":-21.425,"upstream_area_km2":515533.77,"ldd":2,"model":"GloFAS v4 / LISFLOOD","archive_index":2901,"crossing":"outbound_ms"},"geometry":{"type":"LineString","coordinates":[[-51.92500000000001,-21.424999999999997],[-51.92500000000001,-21.474999999999994]]}},{"type":"Feature","properties":{"glofas_id":"g4_-021.475_-0057.925","glofas_lon":-57.925,"glofas_lat":-21.475,"upstream_area_km2":567979.15,"ldd":1,"model":"GloFAS v4 / LISFLOOD","archive_index":2902,"crossing":"outbound_ms"},"geometry":{"type":"LineString","coordinates":[[-57.92500000000001,-21.474999999999994],[-57.97500000000001,-21.52499999999999]]}},{"type":"Feature","properties":{"glofas_id":"g4_-021.475_-0052.025","glofas_lon":-52.025,"glofas_lat":-21.475,"upstream_area_km2":574.26,"ldd":2,"model":"GloFAS v4 / LISFLOOD","archive_index":2933,"crossing":"outbound_ms"},"geometry":{"type":"LineString","coordinates":[[-52.025000000000006,-21.474999999999994],[-52.025000000000006,-21.52499999999999]]}},{"type":"Feature","properties":{"glofas_id":"g4_-021.575_-0052.125","glofas_lon":-52.125,"glofas_lat":-21.575,"upstream_area_km2":526687.83,"ldd":6,"model":"GloFAS v4 / LISFLOOD","archive_index":3009,"crossing":"outbound_ms"},"geometry":{"type":"LineString","coordinates":[[-52.125,-21.575000000000003],[-52.075,-21.575000000000003]]}},{"type":"Feature","properties":{"glofas_id":"g4_-021.625_-0057.925","glofas_lon":-57.925,"glofas_lat":-21.625,"upstream_area_km2":568724.62,"ldd":2,"model":"GloFAS v4 / LISFLOOD","archive_index":3011,"crossing":"outbound_ms"},"geometry":{"type":"LineString","coordinates":[[-57.92500000000001,-21.625],[-57.92500000000001,-21.674999999999997]]}},{"type":"Feature","properties":{"glofas_id":"g4_-021.675_-0052.075","glofas_lon":-52.075,"glofas_lat":-21.675,"upstream_area_km2":527031.76,"ldd":2,"model":"GloFAS v4 / LISFLOOD","archive_index":3080,"crossing":"outbound_ms"},"geometry":{"type":"LineString","coordinates":[[-52.075,-21.674999999999997],[-52.075,-21.724999999999994]]}},{"type":"Feature","properties":{"glofas_id":"g4_-021.725_-0057.925","glofas_lon":-57.925,"glofas_lat":-21.725,"upstream_area_km2":576487.23,"ldd":2,"model":"GloFAS v4 / LISFLOOD","archive_index":3082,"crossing":"outbound_ms"},"geometry":{"type":"LineString","coordinates":[[-57.92500000000001,-21.724999999999994],[-57.92500000000001,-21.77499999999999]]}},{"type":"Feature","properties":{"glofas_id":"g4_-021.775_-0052.175","glofas_lon":-52.175,"glofas_lat":-21.775,"upstream_area_km2":564140.24,"ldd":2,"model":"GloFAS v4 / LISFLOOD","archive_index":3125,"crossing":"outbound_ms"},"geometry":{"type":"LineString","coordinates":[[-52.17500000000001,-21.77499999999999],[-52.17500000000001,-21.82499999999999]]}},{"type":"Feature","properties":{"glofas_id":"g4_-021.825_-0057.925","glofas_lon":-57.925,"glofas_lat":-21.825,"upstream_area_km2":577832.35,"ldd":4,"model":"GloFAS v4 / LISFLOOD","archive_index":3127,"crossing":"outbound_ms"},"geometry":{"type":"LineString","coordinates":[[-57.92500000000001,-21.825000000000003],[-57.97500000000001,-21.825000000000003]]}},{"type":"Feature","properties":{"glofas_id":"g4_-021.875_-0052.225","glofas_lon":-52.225,"glofas_lat":-21.875,"upstream_area_km2":566512.39,"ldd":1,"model":"GloFAS v4 / LISFLOOD","archive_index":3181,"crossing":"outbound_ms"},"geometry":{"type":"LineString","coordinates":[[-52.22500000000001,-21.875],[-52.275000000000006,-21.924999999999997]]}},{"type":"Feature","properties":{"glofas_id":"g4_-021.925_-0057.925","glofas_lon":-57.925,"glofas_lat":-21.925,"upstream_area_km2":578232.91,"ldd":1,"model":"GloFAS v4 / LISFLOOD","archive_index":3183,"crossing":"outbound_ms"},"geometry":{"type":"LineString","coordinates":[[-57.92500000000001,-21.924999999999997],[-57.97500000000001,-21.974999999999994]]}},{"type":"Feature","properties":{"glofas_id":"g4_-021.975_-0052.325","glofas_lon":-52.325,"glofas_lat":-21.975,"upstream_area_km2":567284.6,"ldd":2,"model":"GloFAS v4 / LISFLOOD","archive_index":3251,"crossing":"outbound_ms"},"geometry":{"type":"LineString","coordinates":[[-52.325,-21.974999999999994],[-52.325,-22.02499999999999]]}},{"type":"Feature","properties":{"glofas_id":"g4_-022.075_-0057.975","glofas_lon":-57.975,"glofas_lat":-22.075,"upstream_area_km2":601449.96,"ldd":2,"model":"GloFAS v4 / LISFLOOD","archive_index":3281,"crossing":"outbound_ms"},"geometry":{"type":"LineString","coordinates":[[-57.97500000000001,-22.075000000000003],[-57.97500000000001,-22.125]]}},{"type":"Feature","properties":{"glofas_id":"g4_-022.075_-0057.725","glofas_lon":-57.725,"glofas_lat":-22.075,"upstream_area_km2":15180.48,"ldd":2,"model":"GloFAS v4 / LISFLOOD","archive_index":3283,"crossing":"outbound_ms"},"geometry":{"type":"LineString","coordinates":[[-57.72500000000001,-22.075000000000003],[-57.72500000000001,-22.125]]}},{"type":"Feature","properties":{"glofas_id":"g4_-022.075_-0057.625","glofas_lon":-57.625,"glofas_lat":-22.075,"upstream_area_km2":15094.8,"ldd":1,"model":"GloFAS v4 / LISFLOOD","archive_index":3284,"crossing":"outbound_ms"},"geometry":{"type":"LineString","coordinates":[[-57.625,-22.075000000000003],[-57.675,-22.125]]}},{"type":"Feature","properties":{"glofas_id":"g4_-022.125_-0057.875","glofas_lon":-57.875,"glofas_lat":-22.125,"upstream_area_km2":15437.53,"ldd":4,"model":"GloFAS v4 / LISFLOOD","archive_index":3310,"crossing":"outbound_ms"},"geometry":{"type":"LineString","coordinates":[[-57.875,-22.125],[-57.925,-22.125]]}},{"type":"Feature","properties":{"glofas_id":"g4_-022.125_-0057.775","glofas_lon":-57.775,"glofas_lat":-22.125,"upstream_area_km2":15351.86,"ldd":4,"model":"GloFAS v4 / LISFLOOD","archive_index":3312,"crossing":"outbound_ms"},"geometry":{"type":"LineString","coordinates":[[-57.775000000000006,-22.125],[-57.825,-22.125]]}},{"type":"Feature","properties":{"glofas_id":"g4_-022.125_-0057.575","glofas_lon":-57.575,"glofas_lat":-22.125,"upstream_area_km2":14780.39,"ldd":4,"model":"GloFAS v4 / LISFLOOD","archive_index":3316,"crossing":"outbound_ms"},"geometry":{"type":"LineString","coordinates":[[-57.575,-22.125],[-57.625,-22.125]]}},{"type":"Feature","properties":{"glofas_id":"g4_-022.125_-0057.475","glofas_lon":-57.475,"glofas_lat":-22.125,"upstream_area_km2":3496.57,"ldd":1,"model":"GloFAS v4 / LISFLOOD","archive_index":3317,"crossing":"outbound_ms"},"geometry":{"type":"LineString","coordinates":[[-57.47500000000001,-22.125],[-57.525000000000006,-22.174999999999997]]}},{"type":"Feature","properties":{"glofas_id":"g4_-022.125_-0056.525","glofas_lon":-56.525,"glofas_lat":-22.125,"upstream_area_km2":2913.73,"ldd":2,"model":"GloFAS v4 / LISFLOOD","archive_index":3321,"crossing":"outbound_ms"},"geometry":{"type":"LineString","coordinates":[[-56.525000000000006,-22.125],[-56.525000000000006,-22.174999999999997]]}},{"type":"Feature","properties":{"glofas_id":"g4_-022.125_-0052.425","glofas_lon":-52.425,"glofas_lat":-22.125,"upstream_area_km2":568570.48,"ldd":2,"model":"GloFAS v4 / LISFLOOD","archive_index":3340,"crossing":"outbound_ms"},"geometry":{"type":"LineString","coordinates":[[-52.42500000000001,-22.125],[-52.42500000000001,-22.174999999999997]]}},{"type":"Feature","properties":{"glofas_id":"g4_-022.175_-0057.475","glofas_lon":-57.475,"glofas_lat":-22.175,"upstream_area_km2":11026.91,"ldd":4,"model":"GloFAS v4 / LISFLOOD","archive_index":3343,"crossing":"outbound_ms"},"geometry":{"type":"LineString","coordinates":[[-57.47500000000001,-22.174999999999997],[-57.525000000000006,-22.174999999999997]]}},{"type":"Feature","properties":{"glofas_id":"g4_-022.175_-0057.425","glofas_lon":-57.425,"glofas_lat":-22.175,"upstream_area_km2":10655.77,"ldd":2,"model":"GloFAS v4 / LISFLOOD","archive_index":3344,"crossing":"outbound_ms"},"geometry":{"type":"LineString","coordinates":[[-57.42500000000001,-22.174999999999997],[-57.42500000000001,-22.224999999999994]]}},{"type":"Feature","properties":{"glofas_id":"g4_-022.175_-0056.575","glofas_lon":-56.575,"glofas_lat":-22.175,"upstream_area_km2":3313.39,"ldd":2,"model":"GloFAS v4 / LISFLOOD","archive_index":3347,"crossing":"outbound_ms"},"geometry":{"type":"LineString","coordinates":[[-56.575,-22.174999999999997],[-56.575,-22.224999999999994]]}},{"type":"Feature","properties":{"glofas_id":"g4_-022.175_-0056.325","glofas_lon":-56.325,"glofas_lat":-22.175,"upstream_area_km2":1084.38,"ldd":4,"model":"GloFAS v4 / LISFLOOD","archive_index":3350,"crossing":"outbound_ms"},"geometry":{"type":"LineString","coordinates":[[-56.325,-22.174999999999997],[-56.375,-22.174999999999997]]}},{"type":"Feature","properties":{"glofas_id":"g4_-022.225_-0057.325","glofas_lon":-57.325,"glofas_lat":-22.225,"upstream_area_km2":10284.82,"ldd":4,"model":"GloFAS v4 / LISFLOOD","archive_index":3369,"crossing":"outbound_ms"},"geometry":{"type":"LineString","coordinates":[[-57.325,-22.224999999999994],[-57.375,-22.224999999999994]]}},{"type":"Feature","properties":{"glofas_id":"g4_-022.225_-0056.725","glofas_lon":-56.725,"glofas_lat":-22.225,"upstream_area_km2":3826.99,"ldd":2,"model":"GloFAS v4 / LISFLOOD","archive_index":3378,"crossing":"outbound_ms"},"geometry":{"type":"LineString","coordinates":[[-56.72500000000001,-22.224999999999994],[-56.72500000000001,-22.27499999999999]]}},{"type":"Feature","properties":{"glofas_id":"g4_-022.225_-0056.625","glofas_lon":-56.625,"glofas_lat":-22.225,"upstream_area_km2":3456.12,"ldd":2,"model":"GloFAS v4 / LISFLOOD","archive_index":3380,"crossing":"outbound_ms"},"geometry":{"type":"LineString","coordinates":[[-56.625,-22.224999999999994],[-56.625,-22.27499999999999]]}},{"type":"Feature","properties":{"glofas_id":"g4_-022.225_-0056.275","glofas_lon":-56.275,"glofas_lat":-22.225,"upstream_area_km2":684.67,"ldd":4,"model":"GloFAS v4 / LISFLOOD","archive_index":3383,"crossing":"outbound_ms"},"geometry":{"type":"LineString","coordinates":[[-56.275000000000006,-22.224999999999994],[-56.325,-22.224999999999994]]}},{"type":"Feature","properties":{"glofas_id":"g4_-022.275_-0056.875","glofas_lon":-56.875,"glofas_lat":-22.275,"upstream_area_km2":6486.58,"ldd":4,"model":"GloFAS v4 / LISFLOOD","archive_index":3415,"crossing":"outbound_ms"},"geometry":{"type":"LineString","coordinates":[[-56.875,-22.27499999999999],[-56.925,-22.27499999999999]]}},{"type":"Feature","properties":{"glofas_id":"g4_-022.275_-0056.175","glofas_lon":-56.175,"glofas_lat":-22.275,"upstream_area_km2":570.52,"ldd":4,"model":"GloFAS v4 / LISFLOOD","archive_index":3421,"crossing":"outbound_ms"},"geometry":{"type":"LineString","coordinates":[[-56.17500000000001,-22.27499999999999],[-56.22500000000001,-22.27499999999999]]}},{"type":"Feature","properties":{"glofas_id":"g4_-022.275_-0056.075","glofas_lon":-56.075,"glofas_lat":-22.275,"upstream_area_km2":285.28,"ldd":4,"model":"GloFAS v4 / LISFLOOD","archive_index":3423,"crossing":"outbound_ms"},"geometry":{"type":"LineString","coordinates":[[-56.075,-22.27499999999999],[-56.125,-22.27499999999999]]}},{"type":"Feature","properties":{"glofas_id":"g4_-022.425_-0052.925","glofas_lon":-52.925,"glofas_lat":-22.425,"upstream_area_km2":572567.78,"ldd":2,"model":"GloFAS v4 / LISFLOOD","archive_index":3488,"crossing":"outbound_ms"},"geometry":{"type":"LineString","coordinates":[[-52.92500000000001,-22.424999999999997],[-52.92500000000001,-22.474999999999994]]}},{"type":"Feature","properties":{"glofas_id":"g4_-022.475_-0052.975","glofas_lon":-52.975,"glofas_lat":-22.475,"upstream_area_km2":572624.8,"ldd":1,"model":"GloFAS v4 / LISFLOOD","archive_index":3502,"crossing":"outbound_ms"},"geometry":{"type":"LineString","coordinates":[[-52.97500000000001,-22.474999999999994],[-53.025000000000006,-22.52499999999999]]}},{"type":"Feature","properties":{"glofas_id":"g4_-022.525_-0053.075","glofas_lon":-53.075,"glofas_lat":-22.525,"upstream_area_km2":572738.83,"ldd":2,"model":"GloFAS v4 / LISFLOOD","archive_index":3514,"crossing":"outbound_ms"},"geometry":{"type":"LineString","coordinates":[[-53.075,-22.52499999999999],[-53.075,-22.57499999999999]]}},{"type":"Feature","properties":{"glofas_id":"g4_-022.675_-0053.175","glofas_lon":-53.175,"glofas_lat":-22.675,"upstream_area_km2":572824.16,"ldd":2,"model":"GloFAS v4 / LISFLOOD","archive_index":3547,"crossing":"outbound_ms"},"geometry":{"type":"LineString","coordinates":[[-53.17500000000001,-22.674999999999997],[-53.17500000000001,-22.724999999999994]]}},{"type":"Feature","properties":{"glofas_id":"g4_-022.725_-0053.275","glofas_lon":-53.275,"glofas_lat":-22.725,"upstream_area_km2":2910.73,"ldd":1,"model":"GloFAS v4 / LISFLOOD","archive_index":3560,"crossing":"outbound_ms"},"geometry":{"type":"LineString","coordinates":[[-53.275000000000006,-22.724999999999994],[-53.325,-22.77499999999999]]}},{"type":"Feature","properties":{"glofas_id":"g4_-022.725_-0053.225","glofas_lon":-53.225,"glofas_lat":-22.725,"upstream_area_km2":675268.72,"ldd":1,"model":"GloFAS v4 / LISFLOOD","archive_index":3561,"crossing":"outbound_ms"},"geometry":{"type":"LineString","coordinates":[[-53.22500000000001,-22.724999999999994],[-53.275000000000006,-22.77499999999999]]}},{"type":"Feature","properties":{"glofas_id":"g4_-022.775_-0053.375","glofas_lon":-53.375,"glofas_lat":-22.775,"upstream_area_km2":678520.82,"ldd":2,"model":"GloFAS v4 / LISFLOOD","archive_index":3570,"crossing":"outbound_ms"},"geometry":{"type":"LineString","coordinates":[[-53.375,-22.77499999999999],[-53.375,-22.82499999999999]]}},{"type":"Feature","properties":{"glofas_id":"g4_-022.825_-0053.425","glofas_lon":-53.425,"glofas_lat":-22.825,"upstream_area_km2":678662.96,"ldd":1,"model":"GloFAS v4 / LISFLOOD","archive_index":3583,"crossing":"outbound_ms"},"geometry":{"type":"LineString","coordinates":[[-53.42500000000001,-22.825000000000003],[-53.47500000000001,-22.875]]}},{"type":"Feature","properties":{"glofas_id":"g4_-022.975_-0053.675","glofas_lon":-53.675,"glofas_lat":-22.975,"upstream_area_km2":37644.26,"ldd":3,"model":"GloFAS v4 / LISFLOOD","archive_index":3638,"crossing":"outbound_ms"},"geometry":{"type":"LineString","coordinates":[[-53.67500000000001,-22.974999999999994],[-53.625000000000014,-23.02499999999999]]}},{"type":"Feature","properties":{"glofas_id":"g4_-022.975_-0053.625","glofas_lon":-53.625,"glofas_lat":-22.975,"upstream_area_km2":679174.21,"ldd":2,"model":"GloFAS v4 / LISFLOOD","archive_index":3639,"crossing":"outbound_ms"},"geometry":{"type":"LineString","coordinates":[[-53.625,-22.974999999999994],[-53.625,-23.02499999999999]]}},{"type":"Feature","properties":{"glofas_id":"g4_-023.275_-0053.725","glofas_lon":-53.725,"glofas_lat":-23.275,"upstream_area_km2":755590.37,"ldd":2,"model":"GloFAS v4 / LISFLOOD","archive_index":3690,"crossing":"outbound_ms"},"geometry":{"type":"LineString","coordinates":[[-53.72500000000001,-23.27499999999999],[-53.72500000000001,-23.32499999999999]]}},{"type":"Feature","properties":{"glofas_id":"g4_-023.375_-0053.825","glofas_lon":-53.825,"glofas_lat":-23.375,"upstream_area_km2":756721.65,"ldd":1,"model":"GloFAS v4 / LISFLOOD","archive_index":3717,"crossing":"outbound_ms"},"geometry":{"type":"LineString","coordinates":[[-53.825,-23.375],[-53.875,-23.424999999999997]]}},{"type":"Feature","properties":{"glofas_id":"g4_-023.425_-0053.975","glofas_lon":-53.975,"glofas_lat":-23.425,"upstream_area_km2":768811.47,"ldd":2,"model":"GloFAS v4 / LISFLOOD","archive_index":3729,"crossing":"outbound_ms"},"geometry":{"type":"LineString","coordinates":[[-53.97500000000001,-23.424999999999997],[-53.97500000000001,-23.474999999999994]]}},{"type":"Feature","properties":{"glofas_id":"g4_-023.575_-0054.025","glofas_lon":-54.025,"glofas_lat":-23.575,"upstream_area_km2":769207.3,"ldd":2,"model":"GloFAS v4 / LISFLOOD","archive_index":3755,"crossing":"outbound_ms"},"geometry":{"type":"LineString","coordinates":[[-54.025000000000006,-23.575000000000003],[-54.025000000000006,-23.625]]}},{"type":"Feature","properties":{"glofas_id":"g4_-023.625_-0054.075","glofas_lon":-54.075,"glofas_lat":-23.625,"upstream_area_km2":621.9,"ldd":3,"model":"GloFAS v4 / LISFLOOD","archive_index":3763,"crossing":"outbound_ms"},"geometry":{"type":"LineString","coordinates":[[-54.075,-23.625],[-54.025000000000006,-23.674999999999997]]}},{"type":"Feature","properties":{"glofas_id":"g4_-023.725_-0054.075","glofas_lon":-54.075,"glofas_lat":-23.725,"upstream_area_km2":770196.44,"ldd":2,"model":"GloFAS v4 / LISFLOOD","archive_index":3783,"crossing":"outbound_ms"},"geometry":{"type":"LineString","coordinates":[[-54.075,-23.724999999999994],[-54.075,-23.77499999999999]]}},{"type":"Feature","properties":{"glofas_id":"g4_-023.975_-0054.175","glofas_lon":-54.175,"glofas_lat":-23.975,"upstream_area_km2":778927.34,"ldd":2,"model":"GloFAS v4 / LISFLOOD","archive_index":3818,"crossing":"outbound_ms"},"geometry":{"type":"LineString","coordinates":[[-54.17500000000001,-23.974999999999994],[-54.17500000000001,-24.02499999999999]]}},{"type":"Feature","properties":{"glofas_id":"g4_-024.025_-0054.225","glofas_lon":-54.225,"glofas_lat":-24.025,"upstream_area_km2":779011.88,"ldd":1,"model":"GloFAS v4 / LISFLOOD","archive_index":3823,"crossing":"outbound_ms"},"geometry":{"type":"LineString","coordinates":[[-54.22500000000001,-24.02499999999999],[-54.275000000000006,-24.07499999999999]]}}],"metadata":{"method":"GloFAS/LISFLOOD directed links with origin inside MS and downstream endpoint outside MS","count":154}}