{"type":"FeatureCollection","demo":true,"features":[{"type":"Feature","properties":{"id":"demo-0001","demo":true,"order":5,"basin":"oeste"},"geometry":{"type":"LineString","coordinates":[[-57.45,-18.0],[-57.5,-18.7],[-57.48,-19.4],[-57.42,-20.1],[-57.45,-20.8],[-57.35,-21.5],[-57.25,-22.2],[-57.15,-22.75]]}},{"type":"Feature","properties":{"id":"demo-0002","demo":true,"order":5,"basin":"leste"},"geometry":{"type":"LineString","coordinates":[[-52.15,-18.8],[-51.85,-19.5],[-51.65,-20.2],[-51.9,-20.9],[-52.2,-21.5],[-52.55,-22.1],[-52.95,-22.75],[-53.45,-23.45]]}},{"type":"Feature","properties":{"id":"demo-0003","demo":true,"order":4,"basin":"oeste"},"geometry":{"type":"LineString","coordinates":[[-53.5,-18.3],[-54.5,-18.7],[-55.5,-19.0],[-56.4,-19.25],[-57.48,-19.4]]}},{"type":"Feature","properties":{"id":"demo-0004","demo":true,"order":4,"basin":"oeste"},"geometry":{"type":"LineString","coordinates":[[-53.8,-19.6],[-54.8,-19.8],[-55.7,-20.05],[-56.6,-20.12],[-57.42,-20.1]]}},{"type":"Feature","properties":{"id":"demo-0005","demo":true,"order":4,"basin":"oeste"},"geometry":{"type":"LineString","coordinates":[[-54.1,-20.7],[-55.0,-20.8],[-55.9,-21.0],[-56.7,-21.25],[-57.35,-21.5]]}},{"type":"Feature","properties":{"id":"demo-0006","demo":true,"order":3,"basin":"oeste"},"geometry":{"type":"LineString","coordinates":[[-54.7,-22.0],[-55.4,-22.15],[-56.1,-22.35],[-56.7,-22.55],[-57.15,-22.75]]}},{"type":"Feature","properties":{"id":"demo-0007","demo":true,"order":4,"basin":"leste"},"geometry":{"type":"LineString","coordinates":[[-54.4,-18.0],[-53.6,-18.3],[-52.8,-18.55],[-52.15,-18.8]]}},{"type":"Feature","properties":{"id":"demo-0008","demo":true,"order":4,"basin":"leste"},"geometry":{"type":"LineString","coordinates":[[-54.4,-19.3],[-53.6,-19.5],[-52.8,-19.8],[-51.85,-19.5]]}},{"type":"Feature","properties":{"id":"demo-0009","demo":true,"order":4,"basin":"leste"},"geometry":{"type":"LineString","coordinates":[[-54.2,-20.7],[-53.5,-20.8],[-52.8,-20.9],[-51.9,-20.9]]}},{"type":"Feature","properties":{"id":"demo-0010","demo":true,"order":4,"basin":"leste"},"geometry":{"type":"LineString","coordinates":[[-54.5,-21.9],[-53.8,-21.8],[-53.0,-21.7],[-52.2,-21.5]]}},{"type":"Feature","properties":{"id":"demo-0011","demo":true,"order":3,"basin":"leste"},"geometry":{"type":"LineString","coordinates":[[-55.0,-22.8],[-54.4,-22.7],[-53.7,-22.55],[-52.95,-22.75]]}},{"type":"Feature","properties":{"id":"demo-0012","demo":true,"order":2,"basin":"oeste"},"geometry":{"type":"LineString","coordinates":[[-53.49973869770015,-19.110686548531483],[-53.73700044229962,-18.819638811094233],[-54.09475662121278,-18.53790264848511]]}},{"type":"Feature","properties":{"id":"demo-0013","demo":true,"order":1,"basin":"oeste"},"geometry":{"type":"LineString","coordinates":[[-53.24123875826645,-19.430040660595257],[-53.3704887279833,-19.27036360456337],[-53.49973869770015,-19.110686548531483]]}},{"type":"Feature","properties":{"id":"demo-0014","demo":true,"order":2,"basin":"oeste"},"geometry":{"type":"LineString","coordinates":[[-55.10378321003231,-19.408515956860374],[-54.997970443456396,-19.08681946839925],[-54.824742284036624,-18.797422685210986]]}},{"type":"Feature","properties":{"id":"demo-0015","demo":true,"order":2,"basin":"oeste"},"geometry":{"type":"LineString","coordinates":[[-55.75113466799169,-19.870718570826643],[-55.93210865316284,-19.513774291402573],[-56.06217093551308,-19.15615859319808]]}},{"type":"Feature","properties":{"id":"demo-0016","demo":true,"order":1,"basin":"oeste"},"geometry":{"type":"LineString","coordinates":[[-55.41423230034893,-20.039033738643266],[-55.58268348417031,-19.954876154734954],[-55.75113466799169,-19.870718570826643]]}},{"type":"Feature","properties":{"id":"demo-0017","demo":true,"order":2,"basin":"oeste"},"geometry":{"type":"LineString","coordinates":[[-57.65032859263892,-19.960663920190388],[-57.32234582749012,-19.663409106212978],[-57.04293245105122,-19.339296173757113]]}},{"type":"Feature","properties":{"id":"demo-0018","demo":true,"order":2,"basin":"oeste"},"geometry":{"type":"LineString","coordinates":[[-53.405427228529796,-19.061144593561313],[-53.64390561596941,-18.77741287543117],[-53.9321293683415,-18.4728517473366]]}},{"type":"Feature","properties":{"id":"demo-0019","demo":true,"order":1,"basin":"oeste"},"geometry":{"type":"LineString","coordinates":[[-53.13022742367979,-19.249252335640303],[-53.26782732610479,-19.155198464600808],[-53.405427228529796,-19.061144593561313]]}},{"type":"Feature","properties":{"id":"demo-0020","demo":true,"order":2,"basin":"oeste"},"geometry":{"type":"LineString","coordinates":[[-55.581695633746975,-19.286738825106468],[-55.45352963864971,-19.10411351639173],[-55.21579661533099,-18.914738984599296]]}},{"type":"Feature","properties":{"id":"demo-0021","demo":true,"order":2,"basin":"oeste"},"geometry":{"type":"LineString","coordinates":[[-55.600428612470544,-19.400813623605416],[-55.81911716244197,-19.323956290955945],[-56.0566672708809,-19.154629797466917]]}},{"type":"Feature","properties":{"id":"demo-0022","demo":true,"order":1,"basin":"oeste"},"geometry":{"type":"LineString","coordinates":[[-55.397242648894554,-19.708557187061782],[-55.49883563068255,-19.5546854053336],[-55.600428612470544,-19.400813623605416]]}},{"type":"Feature","properties":{"id":"demo-0023","demo":true,"order":2,"basin":"oeste"},"geometry":{"type":"LineString","coordinates":[[-53.96251416123304,-19.999963243219266],[-54.21518454573858,-19.833185633434027],[-54.31231681757356,-19.702463363514713]]}},{"type":"Feature","properties":{"id":"demo-0024","demo":true,"order":1,"basin":"oeste"},"geometry":{"type":"LineString","coordinates":[[-53.70658274846409,-20.272564077164642],[-53.834548454848566,-20.136263660191954],[-53.96251416123304,-19.999963243219266]]}},{"type":"Feature","properties":{"id":"demo-0025","demo":true,"order":2,"basin":"oeste"},"geometry":{"type":"LineString","coordinates":[[-55.32281179590077,-20.229581404290208],[-55.26041735572058,-20.05535203695107],[-55.04101667168941,-19.866949075469282]]}},{"type":"Feature","properties":{"id":"demo-0026","demo":true,"order":2,"basin":"oeste"},"geometry":{"type":"LineString","coordinates":[[-55.55969682546196,-20.603496346162697],[-55.87192660864442,-20.387645036687715],[-56.18865631338032,-20.088006602151804]]}},{"type":"Feature","properties":{"id":"demo-0027","demo":true,"order":1,"basin":"oeste"},"geometry":{"type":"LineString","coordinates":[[-55.3458223049256,-20.90096164377161],[-55.45275956519378,-20.752228994967155],[-55.55969682546196,-20.603496346162697]]}},{"type":"Feature","properties":{"id":"demo-0028","demo":true,"order":2,"basin":"oeste"},"geometry":{"type":"LineString","coordinates":[[-57.38105865032273,-20.444564216805258],[-57.21364788462734,-20.27373395910625],[-56.89687245089275,-20.112759208514813]]}},{"type":"Feature","properties":{"id":"demo-0029","demo":true,"order":2,"basin":"oeste"},"geometry":{"type":"LineString","coordinates":[[-54.0293526150784,-20.250811767947013],[-54.3482723789361,-20.040247162253777],[-54.540590751191786,-19.74811815023836]]}},{"type":"Feature","properties":{"id":"demo-0030","demo":true,"order":1,"basin":"oeste"},"geometry":{"type":"LineString","coordinates":[[-53.8218149989942,-20.406793466453365],[-53.925583807036304,-20.32880261720019],[-54.0293526150784,-20.250811767947013]]}},{"type":"Feature","properties":{"id":"demo-0031","demo":true,"order":2,"basin":"oeste"},"geometry":{"type":"LineString","coordinates":[[-55.60766819757507,-20.54471206094088],[-55.50588518335656,-20.251781937713883],[-55.3879908292551,-19.963330785904194]]}},{"type":"Feature","properties":{"id":"demo-0032","demo":true,"order":2,"basin":"oeste"},"geometry":{"type":"LineString","coordinates":[[-55.56355515896544,-20.781119973370227],[-55.84230696468432,-20.429475237636012],[-56.025125908666624,-20.07528757067407]]}},{"type":"Feature","properties":{"id":"demo-0033","demo":true,"order":1,"basin":"oeste"},"geometry":{"type":"LineString","coordinates":[[-55.32293283717309,-20.985694937496916],[-55.44324399806926,-20.88340745543357],[-55.56355515896544,-20.781119973370227]]}},{"type":"Feature","properties":{"id":"demo-0034","demo":true,"order":2,"basin":"oeste"},"geometry":{"type":"LineString","coordinates":[[-54.26792494127634,-21.275173879023427],[-54.381551375089884,-20.993534990717034],[-54.59863557917305,-20.75540395324145]]}},{"type":"Feature","properties":{"id":"demo-0035","demo":true,"order":1,"basin":"oeste"},"geometry":{"type":"LineString","coordinates":[[-54.01825445360932,-21.522867051313455],[-54.14308969744283,-21.39902046516844],[-54.26792494127634,-21.275173879023427]]}},{"type":"Feature","properties":{"id":"demo-0036","demo":true,"order":2,"basin":"oeste"},"geometry":{"type":"LineString","coordinates":[[-55.75042793663535,-21.606735266830107],[-55.52079119247359,-21.25390053632159],[-55.421913433427186,-20.8937585407616]]}},{"type":"Feature","properties":{"id":"demo-0037","demo":true,"order":2,"basin":"oeste"},"geometry":{"type":"LineString","coordinates":[[-55.816797324481506,-21.682720792603057],[-56.03624198436893,-21.40552863785388],[-56.16757137014261,-21.083616053169568]]}},{"type":"Feature","properties":{"id":"demo-0038","demo":true,"order":1,"basin":"oeste"},"geometry":{"type":"LineString","coordinates":[[-55.61419646306865,-21.935599925951177],[-55.71549689377508,-21.809160359277115],[-55.816797324481506,-21.682720792603057]]}},{"type":"Feature","properties":{"id":"demo-0039","demo":true,"order":2,"basin":"oeste"},"geometry":{"type":"LineString","coordinates":[[-57.459224502656646,-21.870015725900117],[-57.19710096408714,-21.673712202631858],[-57.09453047444736,-21.401742490172058]]}},{"type":"Feature","properties":{"id":"demo-0040","demo":true,"order":2,"basin":"oeste"},"geometry":{"type":"LineString","coordinates":[[-54.30788136703454,-21.437881169935146],[-54.47268351927007,-21.05552057705328],[-54.74093091877817,-20.771214546530906]]}},{"type":"Feature","properties":{"id":"demo-0041","demo":true,"order":1,"basin":"oeste"},"geometry":{"type":"LineString","coordinates":[[-54.127834304922004,-21.70324722408792],[-54.21785783597827,-21.570564197011535],[-54.30788136703454,-21.437881169935146]]}},{"type":"Feature","properties":{"id":"demo-0042","demo":true,"order":2,"basin":"oeste"},"geometry":{"type":"LineString","coordinates":[[-55.87547184283405,-21.11360695484786],[-55.65425549579436,-20.969365514177404],[-55.47940363345154,-20.906534140767008]]}},{"type":"Feature","properties":{"id":"demo-0043","demo":true,"order":2,"basin":"oeste"},"geometry":{"type":"LineString","coordinates":[[-55.765835670461364,-21.403978320589008],[-56.161029670006535,-21.311670925495992],[-56.40933109077504,-21.1591659658672]]}},{"type":"Feature","properties":{"id":"demo-0044","demo":true,"order":1,"basin":"oeste"},"geometry":{"type":"LineString","coordinates":[[-55.45789818308088,-21.675208287513403],[-55.61186692677112,-21.539593304051206],[-55.765835670461364,-21.403978320589008]]}},{"type":"Feature","properties":{"id":"demo-0045","demo":true,"order":2,"basin":"oeste"},"geometry":{"type":"LineString","coordinates":[[-54.456431877656186,-22.445580616004168],[-54.765883687464786,-22.208789012983242],[-54.916510949100854,-22.046395203378754]]}},{"type":"Feature","properties":{"id":"demo-0046","demo":true,"order":1,"basin":"oeste"},"geometry":{"type":"LineString","coordinates":[[-54.20794782717293,-22.567142798125488],[-54.33218985241456,-22.506361707064826],[-54.456431877656186,-22.445580616004168]]}},{"type":"Feature","properties":{"id":"demo-0047","demo":true,"order":2,"basin":"oeste"},"geometry":{"type":"LineString","coordinates":[[-56.16093032794664,-22.673692312513015],[-55.874280933464476,-22.491684050821043],[-55.654486767338454,-22.222710504953845]]}},{"type":"Feature","properties":{"id":"demo-0048","demo":true,"order":2,"basin":"oeste"},"geometry":{"type":"LineString","coordinates":[[-55.979940089455766,-22.77531856929823],[-56.16979351776921,-22.609492734896783],[-56.39058206059441,-22.446860686864806]]}},{"type":"Feature","properties":{"id":"demo-0049","demo":true,"order":1,"basin":"oeste"},"geometry":{"type":"LineString","coordinates":[[-55.75439251372277,-23.053510411682353],[-55.867166301589265,-22.91441449049029],[-55.979940089455766,-22.77531856929823]]}},{"type":"Feature","properties":{"id":"demo-0050","demo":true,"order":2,"basin":"oeste"},"geometry":{"type":"LineString","coordinates":[[-57.23173347008409,-23.00118256153557],[-57.069978507278435,-22.84203310971784],[-56.92085356275321,-22.648157139001423]]}},{"type":"Feature","properties":{"id":"demo-0051","demo":true,"order":2,"basin":"oeste"},"geometry":{"type":"LineString","coordinates":[[-54.66323608422273,-22.465693056023618],[-54.86938887087388,-22.310882241063155],[-55.14568865664546,-22.095504712138315]]}},{"type":"Feature","properties":{"id":"demo-0052","demo":true,"order":1,"basin":"oeste"},"geometry":{"type":"LineString","coordinates":[[-54.362932060113465,-22.73819560753502],[-54.5130840721681,-22.60194433177932],[-54.66323608422273,-22.465693056023618]]}},{"type":"Feature","properties":{"id":"demo-0053","demo":true,"order":2,"basin":"oeste"},"geometry":{"type":"LineString","coordinates":[[-56.3606940839349,-22.68612586462182],[-55.99067348598654,-22.462009574182208],[-55.739200177844715,-22.246914336527063]]}},{"type":"Feature","properties":{"id":"demo-0054","demo":true,"order":2,"basin":"oeste"},"geometry":{"type":"LineString","coordinates":[[-56.116743256436976,-22.931704176168967],[-56.29901597189577,-22.748953235334525],[-56.51573801261992,-22.488579337539974]]}},{"type":"Feature","properties":{"id":"demo-0055","demo":true,"order":1,"basin":"oeste"},"geometry":{"type":"LineString","coordinates":[[-55.91342762454665,-23.130049845841288],[-56.015085440491816,-23.030877011005128],[-56.116743256436976,-22.931704176168967]]}},{"type":"Feature","properties":{"id":"demo-0056","demo":true,"order":2,"basin":"leste"},"geometry":{"type":"LineString","coordinates":[[-53.58439290397486,-18.33566934714548],[-53.83129074503995,-18.25682153112263],[-54.00443905862303,-18.148335353016364]]}},{"type":"Feature","properties":{"id":"demo-0057","demo":true,"order":1,"basin":"leste"},"geometry":{"type":"LineString","coordinates":[[-53.33515303178537,-18.566141297138373],[-53.45977296788011,-18.450905322141928],[-53.58439290397486,-18.33566934714548]]}},{"type":"Feature","properties":{"id":"demo-0058","demo":true,"order":2,"basin":"leste"},"geometry":{"type":"LineString","coordinates":[[-53.43124910024089,-18.95310223715558],[-53.18456611430714,-18.67836159142871],[-53.01430886668248,-18.483028479161725]]}},{"type":"Feature","properties":{"id":"demo-0059","demo":true,"order":2,"basin":"leste"},"geometry":{"type":"LineString","coordinates":[[-52.20376031907281,-18.92274568632448],[-52.35480832897493,-18.77000984973187],[-52.564195943434335,-18.64069386790987]]}},{"type":"Feature","properties":{"id":"demo-0060","demo":true,"order":1,"basin":"leste"},"geometry":{"type":"LineString","coordinates":[[-51.9522712477528,-19.151794430951984],[-52.07801578341281,-19.03727005863823],[-52.20376031907281,-18.92274568632448]]}},{"type":"Feature","properties":{"id":"demo-0061","demo":true,"order":2,"basin":"leste"},"geometry":{"type":"LineString","coordinates":[[-54.444794892334784,-18.486140335108725],[-54.26557228809647,-18.274960112675075],[-54.1956750153841,-18.076621869230962]]}},{"type":"Feature","properties":{"id":"demo-0062","demo":true,"order":2,"basin":"leste"},"geometry":{"type":"LineString","coordinates":[[-53.05349401771745,-18.693149044767903],[-53.2156162517646,-18.50068835410218],[-53.330325552681884,-18.384273264786913]]}},{"type":"Feature","properties":{"id":"demo-0063","demo":true,"order":1,"basin":"leste"},"geometry":{"type":"LineString","coordinates":[[-52.86061462946278,-18.82404915791497],[-52.957054323590114,-18.75859910134144],[-53.05349401771745,-18.693149044767903]]}},{"type":"Feature","properties":{"id":"demo-0064","demo":true,"order":2,"basin":"leste"},"geometry":{"type":"LineString","coordinates":[[-52.71937933006746,-19.01026996341869],[-52.592063884899886,-18.852622959184416],[-52.41811104225279,-18.69688036836431]]}},{"type":"Feature","properties":{"id":"demo-0065","demo":true,"order":2,"basin":"leste"},"geometry":{"type":"LineString","coordinates":[[-53.74214392394784,-18.695273738069865],[-53.88276485997292,-18.44245762420874],[-53.99286651380028,-18.152675057324895]]}},{"type":"Feature","properties":{"id":"demo-0066","demo":true,"order":1,"basin":"leste"},"geometry":{"type":"LineString","coordinates":[[-53.50737777659302,-18.834101349607387],[-53.624760850270434,-18.764687543838626],[-53.74214392394784,-18.695273738069865]]}},{"type":"Feature","properties":{"id":"demo-0067","demo":true,"order":2,"basin":"leste"},"geometry":{"type":"LineString","coordinates":[[-53.642166648875495,-19.85355830741415],[-53.887132397937734,-19.579005955783824],[-54.064317037568244,-19.38392074060794]]}},{"type":"Feature","properties":{"id":"demo-0068","demo":true,"order":1,"basin":"leste"},"geometry":{"type":"LineString","coordinates":[[-53.329758287407955,-20.165721540011205],[-53.48596246814172,-20.009639923712676],[-53.642166648875495,-19.85355830741415]]}},{"type":"Feature","properties":{"id":"demo-0069","demo":true,"order":2,"basin":"leste"},"geometry":{"type":"LineString","coordinates":[[-53.64783786712472,-19.943858234869555],[-53.37286970257579,-19.809245969377553],[-53.18929953356884,-19.654012674911684]]}},{"type":"Feature","properties":{"id":"demo-0070","demo":true,"order":2,"basin":"leste"},"geometry":{"type":"LineString","coordinates":[[-51.92429396431613,-20.24842038536007],[-52.170749886988524,-19.987715377159425],[-52.34309459436566,-19.65571408243126]]}},{"type":"Feature","properties":{"id":"demo-0071","demo":true,"order":1,"basin":"leste"},"geometry":{"type":"LineString","coordinates":[[-51.736425885586115,-20.521290474795006],[-51.830359924951125,-20.384855430077536],[-51.92429396431613,-20.24842038536007]]}},{"type":"Feature","properties":{"id":"demo-0072","demo":true,"order":2,"basin":"leste"},"geometry":{"type":"LineString","coordinates":[[-54.32847649143769,-20.131515011762787],[-54.183995796630256,-19.818789903196212],[-53.89662987757566,-19.425842530606083]]}},{"type":"Feature","properties":{"id":"demo-0073","demo":true,"order":2,"basin":"leste"},"geometry":{"type":"LineString","coordinates":[[-52.646323332528546,-20.180638140494484],[-53.01646226892129,-19.88871252209493],[-53.28220799441419,-19.61917200209468]]}},{"type":"Feature","properties":{"id":"demo-0074","demo":true,"order":1,"basin":"leste"},"geometry":{"type":"LineString","coordinates":[[-52.4109206284324,-20.470248888620212],[-52.52862198048047,-20.32544351455735],[-52.646323332528546,-20.180638140494484]]}},{"type":"Feature","properties":{"id":"demo-0075","demo":true,"order":2,"basin":"leste"},"geometry":{"type":"LineString","coordinates":[[-52.87590002544212,-19.942887608221945],[-52.613217245543126,-19.78855400619921],[-52.431986068232874,-19.683785074178804]]}},{"type":"Feature","properties":{"id":"demo-0076","demo":true,"order":2,"basin":"leste"},"geometry":{"type":"LineString","coordinates":[[-53.61695209827481,-20.066131053701053],[-53.86966643744853,-19.687943182236545],[-54.19946871931404,-19.35013282017149]]}},{"type":"Feature","properties":{"id":"demo-0077","demo":true,"order":1,"basin":"leste"},"geometry":{"type":"LineString","coordinates":[[-53.348498120965054,-20.187494239532363],[-53.482725109619935,-20.126812646616706],[-53.61695209827481,-20.066131053701053]]}},{"type":"Feature","properties":{"id":"demo-0078","demo":true,"order":2,"basin":"leste"},"geometry":{"type":"LineString","coordinates":[[-53.48797573698884,-21.225158582717402],[-53.67675042475749,-20.9412761584103],[-53.95910236688375,-20.734413947588035]]}},{"type":"Feature","properties":{"id":"demo-0079","demo":true,"order":1,"basin":"leste"},"geometry":{"type":"LineString","coordinates":[[-53.148469127427965,-21.37406214038154],[-53.3182224322084,-21.29961036154947],[-53.48797573698884,-21.225158582717402]]}},{"type":"Feature","properties":{"id":"demo-0080","demo":true,"order":2,"basin":"leste"},"geometry":{"type":"LineString","coordinates":[[-53.446916563396805,-21.567743354397276],[-53.25635616648839,-21.260077493969],[-53.013780017630886,-20.8694599974813]]}},{"type":"Feature","properties":{"id":"demo-0081","demo":true,"order":2,"basin":"leste"},"geometry":{"type":"LineString","coordinates":[[-52.157644038806374,-21.37165765480604],[-52.38240979914632,-21.17139265695267],[-52.55029523236182,-20.9]]}},{"type":"Feature","properties":{"id":"demo-0082","demo":true,"order":1,"basin":"leste"},"geometry":{"type":"LineString","coordinates":[[-51.93960197310864,-21.52921908325346],[-52.04862300595751,-21.450438369029747],[-52.157644038806374,-21.37165765480604]]}},{"type":"Feature","properties":{"id":"demo-0083","demo":true,"order":2,"basin":"leste"},"geometry":{"type":"LineString","coordinates":[[-54.29324031342414,-21.412421964858336],[-54.01805365181226,-21.132710128773113],[-53.7131345219691,-20.76955221114727]]}},{"type":"Feature","properties":{"id":"demo-0084","demo":true,"order":2,"basin":"leste"},"geometry":{"type":"LineString","coordinates":[[-52.675343348435206,-21.435040864476232],[-52.86976988811975,-21.19069360313512],[-53.018482275006676,-20.868788246427616]]}},{"type":"Feature","properties":{"id":"demo-0085","demo":true,"order":1,"basin":"leste"},"geometry":{"type":"LineString","coordinates":[[-52.490802018008,-21.608237477807435],[-52.5830726832216,-21.521639171141835],[-52.675343348435206,-21.435040864476232]]}},{"type":"Feature","properties":{"id":"demo-0086","demo":true,"order":2,"basin":"leste"},"geometry":{"type":"LineString","coordinates":[[-52.55179278846146,-21.61262907767687],[-52.32974953718159,-21.23625172105984],[-52.23071860468438,-20.9]]}},{"type":"Feature","properties":{"id":"demo-0087","demo":true,"order":2,"basin":"leste"},"geometry":{"type":"LineString","coordinates":[[-53.3801666007069,-21.42137234421353],[-53.591572362829986,-21.135674104601932],[-53.76263715242627,-20.762480406796247]]}},{"type":"Feature","properties":{"id":"demo-0088","demo":true,"order":1,"basin":"leste"},"geometry":{"type":"LineString","coordinates":[[-53.05544287157197,-21.737316874430487],[-53.217804736139435,-21.579344609322007],[-53.3801666007069,-21.42137234421353]]}},{"type":"Feature","properties":{"id":"demo-0089","demo":true,"order":2,"basin":"leste"},"geometry":{"type":"LineString","coordinates":[[-54.012535679449144,-22.40078398187613],[-54.21505746305072,-22.12205601685604],[-54.2676321089656,-21.866804586995084]]}},{"type":"Feature","properties":{"id":"demo-0090","demo":true,"order":1,"basin":"leste"},"geometry":{"type":"LineString","coordinates":[[-53.69998252714985,-22.533527117848603],[-53.85625910329949,-22.46715554986237],[-54.012535679449144,-22.40078398187613]]}},{"type":"Feature","properties":{"id":"demo-0091","demo":true,"order":2,"basin":"leste"},"geometry":{"type":"LineString","coordinates":[[-53.75962167251843,-22.175216938905685],[-53.478053223666464,-21.988111391455057],[-53.31417125471798,-21.739271406839748]]}},{"type":"Feature","properties":{"id":"demo-0092","demo":true,"order":2,"basin":"leste"},"geometry":{"type":"LineString","coordinates":[[-52.4126871913888,-22.293266302108755],[-52.589986064701144,-21.94389268975672],[-52.7428854248799,-21.635721356219975]]}},{"type":"Feature","properties":{"id":"demo-0093","demo":true,"order":1,"basin":"leste"},"geometry":{"type":"LineString","coordinates":[[-52.09684657594485,-22.593162026912875],[-52.254766883666825,-22.443214164510813],[-52.4126871913888,-22.293266302108755]]}},{"type":"Feature","properties":{"id":"demo-0094","demo":true,"order":2,"basin":"leste"},"geometry":{"type":"LineString","coordinates":[[-54.34698433801294,-22.204050808445142],[-54.24926727768936,-22.034493561596495],[-54.12344454464167,-21.84620636352024]]}},{"type":"Feature","properties":{"id":"demo-0095","demo":true,"order":2,"basin":"leste"},"geometry":{"type":"LineString","coordinates":[[-52.82059908134255,-22.453576798472927],[-53.02519232939215,-22.12380985549523],[-53.28490508431566,-21.735613135539456]]}},{"type":"Feature","properties":{"id":"demo-0096","demo":true,"order":1,"basin":"leste"},"geometry":{"type":"LineString","coordinates":[[-52.61642154506701,-22.581035711418643],[-52.71851031320478,-22.517306254945787],[-52.82059908134255,-22.453576798472927]]}},{"type":"Feature","properties":{"id":"demo-0097","demo":true,"order":2,"basin":"leste"},"geometry":{"type":"LineString","coordinates":[[-52.82936153931082,-22.270973128343456],[-52.61117829526989,-21.94638890404931],[-52.44414552392773,-21.561036380981932]]}},{"type":"Feature","properties":{"id":"demo-0098","demo":true,"order":2,"basin":"leste"},"geometry":{"type":"LineString","coordinates":[[-53.870647815733776,-22.1003120368945],[-54.150306068571595,-22.013971236432905],[-54.31866244668598,-21.874094635240855]]}},{"type":"Feature","properties":{"id":"demo-0099","demo":true,"order":1,"basin":"leste"},"geometry":{"type":"LineString","coordinates":[[-53.67364621210126,-22.34209796561956],[-53.77214701391752,-22.22120500125703],[-53.870647815733776,-22.1003120368945]]}},{"type":"Feature","properties":{"id":"demo-0100","demo":true,"order":2,"basin":"leste"},"geometry":{"type":"LineString","coordinates":[[-54.43346177533125,-23.408785283124914],[-54.635477146208245,-23.070922453636275],[-54.746748640800156,-22.75779144013336]]}},{"type":"Feature","properties":{"id":"demo-0101","demo":true,"order":1,"basin":"leste"},"geometry":{"type":"LineString","coordinates":[[-54.20359278256311,-23.687870602825587],[-54.31852727894719,-23.54832794297525],[-54.43346177533125,-23.408785283124914]]}},{"type":"Feature","properties":{"id":"demo-0102","demo":true,"order":2,"basin":"leste"},"geometry":{"type":"LineString","coordinates":[[-54.65837715043586,-22.876905751101766],[-54.40888997858674,-22.74512839541901],[-54.16850267637837,-22.650393430652507]]}},{"type":"Feature","properties":{"id":"demo-0103","demo":true,"order":2,"basin":"leste"},"geometry":{"type":"LineString","coordinates":[[-52.67412194598244,-23.14529622373295],[-52.92617779785167,-22.876477630335806],[-53.25094497713339,-22.669748006097763]]}},{"type":"Feature","properties":{"id":"demo-0104","demo":true,"order":1,"basin":"leste"},"geometry":{"type":"LineString","coordinates":[[-52.434081402840825,-23.366948426141004],[-52.55410167441163,-23.256122324936975],[-52.67412194598244,-23.14529622373295]]}},{"type":"Feature","properties":{"id":"demo-0105","demo":true,"order":2,"basin":"leste"},"geometry":{"type":"LineString","coordinates":[[-54.98224776899753,-23.281444058316307],[-54.79562527963873,-22.983355375299453],[-54.55122732248325,-22.725204553747208]]}},{"type":"Feature","properties":{"id":"demo-0106","demo":true,"order":2,"basin":"leste"},"geometry":{"type":"LineString","coordinates":[[-53.446857846006964,-22.80300465308848],[-53.64814432627462,-22.69601439931628],[-53.88200135510357,-22.589000290379335]]}},{"type":"Feature","properties":{"id":"demo-0107","demo":true,"order":1,"basin":"leste"},"geometry":{"type":"LineString","coordinates":[[-53.18839433018732,-22.984791564387468],[-53.31762608809714,-22.89389810873797],[-53.446857846006964,-22.80300465308848]]}},{"type":"Feature","properties":{"id":"demo-0108","demo":true,"order":2,"basin":"leste"},"geometry":{"type":"LineString","coordinates":[[-53.808697217200375,-23.069547688727432],[-53.60417972592163,-22.88067214594153],[-53.504900983139116,-22.60202640449624]]}},{"type":"Feature","properties":{"id":"demo-0109","demo":true,"order":2,"basin":"leste"},"geometry":{"type":"LineString","coordinates":[[-54.54863921929799,-23.31826882553294],[-54.67957563185327,-23.060044086354686],[-54.81941070836195,-22.76990178472699]]}},{"type":"Feature","properties":{"id":"demo-0110","demo":true,"order":1,"basin":"leste"},"geometry":{"type":"LineString","coordinates":[[-54.31659054792099,-23.4405010822318],[-54.43261488360949,-23.379384953882372],[-54.54863921929799,-23.31826882553294]]}}],"metadata":{"warning":"Rede sint\u00e9tica para teste de interface. N\u00e3o representa a hidrografia real de Mato Grosso do Sul.","generated_by":"scripts/09_prepare_test_data.py","seed":20250917}}